NORAD_CAT_ID,OBJECT_NAME,OBJECT_TYPE,EPOCH,MEAN_MOTION,ECCENTRICITY,INCLINATION,RA_OF_ASC_NODE,ARG_OF_PERICENTER,MEAN_ANOMALY,BSTAR,MEAN_MOTION_DOT,MEAN_MOTION_DDOT,TLE_LINE0,TLE_LINE1,TLE_LINE2,SEMIMAJOR_AXIS,PERIOD,APOGEE,PERIGEE,DECAYED
55282.0,STARLINK-5330,PAYLOAD,2023-05-26 21:28:31,14.98327911,0.0002768,70.0009,90.5331,260.2296,99.8551,1.4167e-06,-7.6e-07,0.0,0 STARLINK-5330,1 55282U 23010P   23146.89480667 -.00000076  00000-0  14167-5 0  9990,2 55282  70.0009  90.5331 0002768 260.2296  99.8551 14.98327911 20320,6950.199,96.107,573.988,570.141,0.0
55282.0,STARLINK-5330,PAYLOAD,2023-05-27 03:53:03,14.98327092,0.0002822,70.0006,89.8587,266.2231,93.8605,-8.3152e-06,-1.92e-06,0.0,0 STARLINK-5330,1 55282U 23010P   23147.16184808 -.00000192  00000-0 -83152-5 0  9999,2 55282  70.0006  89.8587 0002822 266.2231  93.8605 14.98327092 20062,6950.202,96.107,574.028,570.106,0.0
55282.0,STARLINK-5330,PAYLOAD,2023-05-27 21:30:32,14.98329498,0.0002997,70.0003,88.0073,269.6046,90.4769,1.5276e-05,8.9e-07,0.0,0 STARLINK-5330,1 55282U 23010P   23147.89620638  .00000089  00000-0  15276-4 0  9999,2 55282  70.0003  88.0073 0002997 269.6046  90.4769 14.98329498 20475,6950.194,96.107,574.142,569.976,0.0
55282.0,STARLINK-5330,PAYLOAD,2023-05-28 05:31:12,14.98332107,0.0002972,70.0005,87.1658,269.7238,90.3581,4.5252e-05,4.47e-06,0.0,0 STARLINK-5330,1 55282U 23010P   23148.23000385  .00000447  00000-0  45252-4 0  9994,2 55282  70.0005  87.1658 0002972 269.7238  90.3581 14.98332107 20228,6950.186,96.107,574.117,569.986,0.0
55282.0,STARLINK-5330,PAYLOAD,2023-05-28 21:32:32,14.98332666,0.0002957,70.0005,85.4822,268.0145,92.0676,8.5894e-05,9.32e-06,0.0,0 STARLINK-5330,1 55282U 23010P   23148.89760100  .00000932  00000-0  85894-4 0  9999,2 55282  70.0005  85.4822 0002957 268.0145  92.0676 14.98332666 20622,6950.185,96.107,574.105,569.994,0.0
55282.0,STARLINK-5330,PAYLOAD,2023-05-29 05:33:12,14.98336412,0.0002992,70.0008,84.6414,268.436,91.6457,0.00010136,1.117e-05,0.0,0 STARLINK-5330,1 55282U 23010P   23149.23139715  .00001117  00000-0  10136-3 0  9992,2 55282  70.0008  84.6414 0002992 268.4360  91.6457 14.98336412 20372,6950.173,96.107,574.118,569.959,0.0
55282.0,STARLINK-5330,PAYLOAD,2023-05-29 18:22:17,14.98328567,0.0002884,70.0018,83.2967,267.5839,92.499,3.1619e-06,-5.5e-07,0.0,0 STARLINK-5330,1 55282U 23010P   23149.76548384 -.00000055  00000-0  31619-5 0  9998,2 55282  70.0018  83.2967 0002884 267.5839  92.4990 14.98328567 20454,6950.197,96.107,574.067,570.058,0.0
55282.0,STARLINK-5330,PAYLOAD,2023-05-29 21:34:34,14.98317574,0.0003156,70.0014,82.958,267.0083,93.0715,7.1891e-05,7.65e-06,0.0,0 STARLINK-5330,1 55282U 23010P   23149.89900855  .00000765  00000-0  71891-4 0  9999,2 55282  70.0014  82.9580 0003156 267.0083  93.0715 14.98317574 20779,6950.231,96.108,574.29,569.903,0.0
55282.0,STARLINK-5330,PAYLOAD,2023-05-30 05:35:14,14.98324063,0.0002885,70.0012,82.1174,267.9418,92.1411,-8.6295e-05,-1.122e-05,0.0,0 STARLINK-5330,1 55282U 23010P   23150.23281021 -.00001122  00000-0 -86295-4 0  9990,2 55282  70.0012  82.1174 0002885 267.9418  92.1411 14.98324063 20524,6950.211,96.107,574.081,570.071,0.0
55282.0,STARLINK-5330,PAYLOAD,2023-05-30 18:24:18,14.98333006,0.0003206,70.0002,80.7684,273.5831,86.4962,-5.2053e-05,-7.14e-06,0.0,0 STARLINK-5330,1 55282U 23010P   23150.76688371 -.00000714  00000-0 -52053-4 0  9998,2 55282  70.0002  80.7684 0003206 273.5831  86.4962 14.98333006 20606,6950.184,96.107,574.277,569.82,0.0
55282.0,STARLINK-5330,PAYLOAD,2023-05-30 21:36:34,14.98336645,0.0002956,70.0011,80.4339,268.6844,91.3976,-2.0601e-05,-3.39e-06,0.0,0 STARLINK-5330,1 55282U 23010P   23150.90039989 -.00000339  00000-0 -20601-4 0  9996,2 55282  70.0011  80.4339 0002956 268.6844  91.3976 14.98336645 20927,6950.172,96.107,574.092,569.983,0.0
55282.0,STARLINK-5330,PAYLOAD,2023-05-31 04:01:06,14.983401,0.0002931,70.001,79.7603,268.991,91.0913,2.2718e-05,1.78e-06,0.0,0 STARLINK-5330,1 55282U 23010P   23151.16743542  .00000178  00000-0  22718-4 0  9992,2 55282  70.0010  79.7603 0002931 268.9910  91.0913 14.98340100 20661,6950.162,96.106,574.064,569.99,0.0
55282.0,STARLINK-5330,PAYLOAD,2023-05-31 05:37:14,14.98340798,0.0002933,70.0009,79.5915,269.1695,90.9128,3.243e-05,2.94e-06,0.0,0 STARLINK-5330,1 55282U 23010P   23151.23419428  .00000294  00000-0  32430-4 0  9994,2 55282  70.0009  79.5915 0002933 269.1695  90.9128 14.98340798 20971,6950.159,96.106,574.063,569.986,0.0
55282.0,STARLINK-5330,PAYLOAD,2023-05-31 21:38:35,14.98322811,0.0002914,70.001,77.9082,273.1058,86.9768,4.5411e-05,4.49e-06,0.0,0 STARLINK-5330,1 55282U 23010P   23151.90180484  .00000449  00000-0  45411-4 0  9990,2 55282  70.0010  77.9082 0002914 273.1058  86.9768 14.98322811 21070,6950.215,96.107,574.105,570.055,0.0
55282.0,STARLINK-5330,PAYLOAD,2023-06-01 02:26:59,14.98325716,0.0002883,70.0009,77.4033,273.0173,87.0656,7.3913e-05,7.89e-06,0.0,0 STARLINK-5330,1 55282U 23010P   23152.10208283  .00000789  00000-0  73913-4 0  9996,2 55282  70.0009  77.4033 0002883 273.0173  87.0656 14.98325716 20806,6950.206,96.107,574.075,570.067,0.0
55282.0,STARLINK-5330,PAYLOAD,2023-06-01 05:39:15,14.98328071,0.0002877,70.001,77.0666,273.024,87.059,9.4913e-05,1.04e-05,0.0,0 STARLINK-5330,1 55282U 23010P   23152.23560093  .00001040  00000-0  94913-4 0  9994,2 55282  70.0010  77.0666 0002877 273.0240  87.0590 14.98328071 21124,6950.199,96.107,574.063,570.064,0.0
55282.0,STARLINK-5330,PAYLOAD,2023-06-01 21:40:36,14.98333204,0.0002622,70.0017,75.3847,265.8347,94.2512,-3.3432e-05,-4.92e-06,0.0,0 STARLINK-5330,1 55282U 23010P   23152.90320082 -.00000492  00000-0 -33432-4 0  9991,2 55282  70.0017  75.3847 0002622 265.8347  94.2512 14.98333204 21227,6950.183,96.107,573.87,570.226,0.0
55282.0,STARLINK-5330,PAYLOAD,2023-06-02 02:29:00,14.98333929,0.000267,70.0015,74.8794,267.5627,92.5227,-2.8646e-05,-4.35e-06,0.0,0 STARLINK-5330,1 55282U 23010P   23153.10347979 -.00000435  00000-0 -28646-4 0  9996,2 55282  70.0015  74.8794 0002670 267.5627  92.5227 14.98333929 20950,6950.181,96.107,573.901,570.19,0.0
55282.0,STARLINK-5330,PAYLOAD,2023-06-02 04:05:08,14.98333958,0.0002667,70.0015,74.7111,267.628,92.4574,-2.7327e-05,-4.19e-06,0.0,0 STARLINK-5330,1 55282U 23010P   23153.17023958 -.00000419  00000-0 -27327-4 0  9998,2 55282  70.0015  74.7111 0002667 267.6280  92.4574 14.98333958 21265,6950.181,96.107,573.899,570.192,0.0
55282.0,STARLINK-5330,PAYLOAD,2023-06-02 18:30:21,14.98326596,0.0002652,70.0013,73.1955,266.0754,94.0102,-1.16e-05,-2.31e-06,0.0,0 STARLINK-5330,1 55282U 23010P   23153.77108355 -.00000231  00000-0 -11600-4 0  9998,2 55282  70.0013  73.1955 0002652 266.0754  94.0102 14.98326596 21057,6950.203,96.107,573.912,570.225,0.0
55282.0,STARLINK-5330,PAYLOAD,2023-06-02 21:42:37,14.9832573,0.0002693,70.0011,72.8587,266.4544,93.6307,-2.448e-05,-3.85e-06,0.0,0 STARLINK-5330,1 55282U 23010P   23153.90460464 -.00000385  00000-0 -24480-4 0  9995,2 55282  70.0011  72.8587 0002693 266.4544  93.6307 14.98325730 21374,6950.206,96.107,573.943,570.199,0.0
55282.0,STARLINK-5330,PAYLOAD,2023-06-03 04:07:10,14.98326031,0.0002783,70.001,72.1857,269.9475,90.1365,-2.6541e-05,-4.1e-06,0.0,0 STARLINK-5330,1 55282U 23010P   23154.17164543 -.00000410  00000-0 -26541-4 0  9993,2 55282  70.0010  72.1857 0002783 269.9475  90.1365 14.98326031 21413,6950.205,96.107,574.004,570.136,0.0
55282.0,STARLINK-5330,PAYLOAD,2023-06-03 18:32:22,14.98330171,0.0002865,70.0009,70.6711,271.0912,88.9919,-8.8342e-07,-1.04e-06,0.0,0 STARLINK-5330,1 55282U 23010P   23154.77248282 -.00000104  00000-0 -88342-6 0  9991,2 55282  70.0009  70.6711 0002865 271.0912  88.9919 14.98330171 21201,6950.192,96.107,574.049,570.066,0.0
55282.0,STARLINK-5330,PAYLOAD,2023-06-03 21:44:38,14.98330399,0.0002876,70.0009,70.3342,270.7766,89.3064,1.1277e-06,-8e-07,0.0,0 STARLINK-5330,1 55282U 23010P   23154.90600256 -.00000080  00000-0  11277-5 0  9993,2 55282  70.0009  70.3342 0002876 270.7766  89.3064 14.98330399 21526,6950.192,96.107,574.056,570.058,0.0
55282.0,STARLINK-5330,PAYLOAD,2023-06-04 04:09:10,14.98333025,0.0002877,70.0009,69.6605,270.1412,89.9418,2.9998e-05,2.65e-06,0.0,0 STARLINK-5330,1 55282U 23010P   23155.17303981  .00000265  00000-0  29998-4 0  9990,2 55282  70.0009  69.6605 0002877 270.1412  89.9418 14.98333025 21564,6950.184,96.107,574.048,570.049,0.0
55282.0,STARLINK-5330,PAYLOAD,2023-06-04 18:34:23,14.98328517,0.0002891,70.0009,68.1452,270.601,89.4818,6.4387e-05,6.75e-06,0.0,0 STARLINK-5330,1 55282U 23010P   23155.77388132  .00000675  00000-0  64387-4 0  9993,2 55282  70.0009  68.1452 0002891 270.6010  89.4818 14.98328517 21359,6950.197,96.107,574.072,570.053,0.0
55282.0,STARLINK-5330,PAYLOAD,2023-06-04 21:46:39,14.98328821,0.0002897,70.0009,67.8086,270.6035,89.4792,6.4828e-05,6.81e-06,0.0,0 STARLINK-5330,1 55282U 23010P   23155.90740117  .00000681  00000-0  64828-4 0  9990,2 55282  70.0009  67.8086 0002897 270.6035  89.4792 14.98328821 21675,6950.197,96.107,574.075,570.048,0.0
55282.0,STARLINK-5330,PAYLOAD,2023-06-05 04:11:11,14.98332869,0.000288,70.001,67.1354,270.4577,89.6252,0.00010315,1.138e-05,0.0,0 STARLINK-5330,1 55282U 23010P   23156.17443732  .00001138  00000-0  10315-3 0  9992,2 55282  70.0010  67.1354 0002880 270.4577  89.6252 14.98332869 21714,6950.184,96.107,574.051,570.047,0.0
55282.0,STARLINK-5330,PAYLOAD,2023-06-05 20:12:32,14.98330198,0.000281,70.0011,65.4525,269.8686,90.2151,-2.0188e-05,-3.34e-06,0.0,0 STARLINK-5330,1 55282U 23010P   23156.84204187 -.00000334  00000-0 -20188-4 0  9994,2 55282  70.0011  65.4525 0002810 269.8686  90.2151 14.98330198 21812,6950.192,96.107,574.01,570.104,0.0
55282.0,STARLINK-5330,PAYLOAD,2023-06-06 01:00:56,14.98329845,0.0002817,70.0011,64.9476,269.9192,90.1644,-2.3167e-05,-3.69e-06,0.0,0 STARLINK-5330,1 55282U 23010P   23157.04232208 -.00000369  00000-0 -23167-4 0  9990,2 55282  70.0011  64.9476 0002817 269.9192  90.1644 14.98329845 21544,6950.193,96.107,574.016,570.101,0.0
